PROGRESS-MS 32          
1 65586U 25204A   25308.93822298  .00010846  00000+0  19941-3 0  9999
2 65586  51.6335 329.6155 0005046  18.0946 342.0222 15.49755997   274
CYGNUS NG-23            
1 65616U 25208A   25308.93822298  .00010846  00000+0  19941-3 0  9997
2 65616  51.6335 329.6155 0005046  18.0946 342.0222 15.49755997   223
DRAGONFLY               
1 65729U 98067XH  25309.20984679  .00098389  00000+0  11678-2 0  9994
2 65729  51.6310 326.1839 0003888  80.0832 280.0600 15.60384423  7286
1998-067XJ              
1 65730U 98067XJ  25309.22303305  .00276982  00000+0  21906-2 0  9991
2 65730  51.6286 324.7627 0011150  60.5537 299.6572 15.69881229  7307
1998-067XK              
1 65731U 98067XK  25309.23921880  .00066965  00000+0  86918-3 0  9990
2 65731  51.6320 326.3808 0005192  57.1710 302.9781 15.58185877  7281
RSP-03                  
1 65732U 98067XL  25309.22486807  .00080871  00000+0  10051-2 0  9991
2 65732  51.6304 326.2841 0005986  58.9561 301.2018 15.59251997  7298
GHS-01                  
1 65733U 98067XM  25308.30363461  .00104594  00000+0  12127-2 0  9995
2 65733  51.6324 330.6344 0004187  71.8718 288.2732 15.60965600  7155
YOTSUBA-KULOVER         
1 65941U 98067XN  25309.21802813  .00053329  00000+0  82139-3 0  9996
2 65941  51.6319 327.7352 0002624   8.3465 351.7569 15.53654674  4018
BOTAN                   
1 65942U 98067XP  25308.30992354  .00070090  00000+0  10417-2 0  9999
2 65942  51.6322 332.1719 0004782  18.8156 341.3011 15.54512341  3875
E-KAGAKU-1              
1 65943U 98067XQ  25309.21758692  .00053565  00000+0  82466-3 0  9998
2 65943  51.6325 327.7332 0004471  12.1112 347.9985 15.53658903  4017
HRC MONOBLOCK CAMERA    
1 66052U 98067XR  25309.25196254  .00030019  00000+0  51590-3 0  9997
2 66052  51.6322 327.9600 0004572  29.5729 330.5518 15.50861039  3016
HTV-X1                  
1 66174U 25241A   25308.93822298  .00010846  00000+0  19941-3 0  9994
2 66174  51.6335 329.6155 0005046  18.0946 342.0222 15.49755997  1459
