CCSDS_OMM_VERS = 2.0
CREATION_DATE  = 
ORIGINATOR     = 

OBJECT_NAME    = PROGRESS-MS 32
OBJECT_ID      = 2025-204A
CENTER_NAME    = EARTH
REF_FRAME      = TEME
TIME_SYSTEM    = UTC
MEAN_ELEMENT_THEORY = SGP/SGP4

EPOCH          = 2025-11-04T22:31:02.465472
MEAN_MOTION    = 15.49755997
ECCENTRICITY   = .0005046
INCLINATION    = 51.6335
RA_OF_ASC_NODE = 329.6155
ARG_OF_PERICENTER = 18.0946
MEAN_ANOMALY   = 342.0222

EPHEMERIS_TYPE = 0
CLASSIFICATION_TYPE = U
NORAD_CAT_ID   = 65586
ELEMENT_SET_NO = 999
REV_AT_EPOCH   = 27
BSTAR          = .19940879E-3
MEAN_MOTION_DOT = .10846E-3
MEAN_MOTION_DDOT = 0

CCSDS_OMM_VERS = 2.0
CREATION_DATE  = 
ORIGINATOR     = 

OBJECT_NAME    = CYGNUS NG-23
OBJECT_ID      = 2025-208A
CENTER_NAME    = EARTH
REF_FRAME      = TEME
TIME_SYSTEM    = UTC
MEAN_ELEMENT_THEORY = SGP/SGP4

EPOCH          = 2025-11-04T22:31:02.465472
MEAN_MOTION    = 15.49755997
ECCENTRICITY   = .0005046
INCLINATION    = 51.6335
RA_OF_ASC_NODE = 329.6155
ARG_OF_PERICENTER = 18.0946
MEAN_ANOMALY   = 342.0222

EPHEMERIS_TYPE = 0
CLASSIFICATION_TYPE = U
NORAD_CAT_ID   = 65616
ELEMENT_SET_NO = 999
REV_AT_EPOCH   = 22
BSTAR          = .19940879E-3
MEAN_MOTION_DOT = .10846E-3
MEAN_MOTION_DDOT = 0

CCSDS_OMM_VERS = 2.0
CREATION_DATE  = 
ORIGINATOR     = 

OBJECT_NAME    = DRAGONFLY
OBJECT_ID      = 1998-067XH
CENTER_NAME    = EARTH
REF_FRAME      = TEME
TIME_SYSTEM    = UTC
MEAN_ELEMENT_THEORY = SGP/SGP4

EPOCH          = 2025-11-05T05:02:10.762656
MEAN_MOTION    = 15.60384423
ECCENTRICITY   = .00038882
INCLINATION    = 51.6310
RA_OF_ASC_NODE = 326.1839
ARG_OF_PERICENTER = 80.0832
MEAN_ANOMALY   = 280.0600

EPHEMERIS_TYPE = 0
CLASSIFICATION_TYPE = U
NORAD_CAT_ID   = 65729
ELEMENT_SET_NO = 999
REV_AT_EPOCH   = 728
BSTAR          = .11677881E-2
MEAN_MOTION_DOT = .98389E-3
MEAN_MOTION_DDOT = 0

CCSDS_OMM_VERS = 2.0
CREATION_DATE  = 
ORIGINATOR     = 

OBJECT_NAME    = 1998-067XJ
OBJECT_ID      = 1998-067XJ
CENTER_NAME    = EARTH
REF_FRAME      = TEME
TIME_SYSTEM    = UTC
MEAN_ELEMENT_THEORY = SGP/SGP4

EPOCH          = 2025-11-05T05:21:10.055520
MEAN_MOTION    = 15.69881229
ECCENTRICITY   = .00111509
INCLINATION    = 51.6286
RA_OF_ASC_NODE = 324.7627
ARG_OF_PERICENTER = 60.5537
MEAN_ANOMALY   = 299.6572

EPHEMERIS_TYPE = 0
CLASSIFICATION_TYPE = U
NORAD_CAT_ID   = 65730
ELEMENT_SET_NO = 999
REV_AT_EPOCH   = 730
BSTAR          = .21905932E-2
MEAN_MOTION_DOT = .276982E-2
MEAN_MOTION_DDOT = 0

CCSDS_OMM_VERS = 2.0
CREATION_DATE  = 
ORIGINATOR     = 

OBJECT_NAME    = 1998-067XK
OBJECT_ID      = 1998-067XK
CENTER_NAME    = EARTH
REF_FRAME      = TEME
TIME_SYSTEM    = UTC
MEAN_ELEMENT_THEORY = SGP/SGP4

EPOCH          = 2025-11-05T05:44:28.504320
MEAN_MOTION    = 15.58185877
ECCENTRICITY   = .00051922
INCLINATION    = 51.6320
RA_OF_ASC_NODE = 326.3808
ARG_OF_PERICENTER = 57.1710
MEAN_ANOMALY   = 302.9781

EPHEMERIS_TYPE = 0
CLASSIFICATION_TYPE = U
NORAD_CAT_ID   = 65731
ELEMENT_SET_NO = 999
REV_AT_EPOCH   = 728
BSTAR          = .86917828E-3
MEAN_MOTION_DOT = .66965E-3
MEAN_MOTION_DDOT = 0

CCSDS_OMM_VERS = 2.0
CREATION_DATE  = 
ORIGINATOR     = 

OBJECT_NAME    = RSP-03
OBJECT_ID      = 1998-067XL
CENTER_NAME    = EARTH
REF_FRAME      = TEME
TIME_SYSTEM    = UTC
MEAN_ELEMENT_THEORY = SGP/SGP4

EPOCH          = 2025-11-05T05:23:48.601248
MEAN_MOTION    = 15.59251997
ECCENTRICITY   = .00059864
INCLINATION    = 51.6304
RA_OF_ASC_NODE = 326.2841
ARG_OF_PERICENTER = 58.9561
MEAN_ANOMALY   = 301.2018

EPHEMERIS_TYPE = 0
CLASSIFICATION_TYPE = U
NORAD_CAT_ID   = 65732
ELEMENT_SET_NO = 999
REV_AT_EPOCH   = 729
BSTAR          = .10050502E-2
MEAN_MOTION_DOT = .80871E-3
MEAN_MOTION_DDOT = 0

CCSDS_OMM_VERS = 2.0
CREATION_DATE  = 
ORIGINATOR     = 

OBJECT_NAME    = GHS-01
OBJECT_ID      = 1998-067XM
CENTER_NAME    = EARTH
REF_FRAME      = TEME
TIME_SYSTEM    = UTC
MEAN_ELEMENT_THEORY = SGP/SGP4

EPOCH          = 2025-11-04T07:17:14.030304
MEAN_MOTION    = 15.60965600
ECCENTRICITY   = .00041873
INCLINATION    = 51.6324
RA_OF_ASC_NODE = 330.6344
ARG_OF_PERICENTER = 71.8718
MEAN_ANOMALY   = 288.2732

EPHEMERIS_TYPE = 0
CLASSIFICATION_TYPE = U
NORAD_CAT_ID   = 65733
ELEMENT_SET_NO = 999
REV_AT_EPOCH   = 715
BSTAR          = .121272E-2
MEAN_MOTION_DOT = .104594E-2
MEAN_MOTION_DDOT = 0

CCSDS_OMM_VERS = 2.0
CREATION_DATE  = 
ORIGINATOR     = 

OBJECT_NAME    = YOTSUBA-KULOVER
OBJECT_ID      = 1998-067XN
CENTER_NAME    = EARTH
REF_FRAME      = TEME
TIME_SYSTEM    = UTC
MEAN_ELEMENT_THEORY = SGP/SGP4

EPOCH          = 2025-11-05T05:13:57.630432
MEAN_MOTION    = 15.53654674
ECCENTRICITY   = .00026249
INCLINATION    = 51.6319
RA_OF_ASC_NODE = 327.7352
ARG_OF_PERICENTER = 8.3465
MEAN_ANOMALY   = 351.7569

EPHEMERIS_TYPE = 0
CLASSIFICATION_TYPE = U
NORAD_CAT_ID   = 65941
ELEMENT_SET_NO = 999
REV_AT_EPOCH   = 401
BSTAR          = .82138633E-3
MEAN_MOTION_DOT = .53329E-3
MEAN_MOTION_DDOT = 0

CCSDS_OMM_VERS = 2.0
CREATION_DATE  = 
ORIGINATOR     = 

OBJECT_NAME    = BOTAN
OBJECT_ID      = 1998-067XP
CENTER_NAME    = EARTH
REF_FRAME      = TEME
TIME_SYSTEM    = UTC
MEAN_ELEMENT_THEORY = SGP/SGP4

EPOCH          = 2025-11-04T07:26:17.393856
MEAN_MOTION    = 15.54512341
ECCENTRICITY   = .00047823
INCLINATION    = 51.6322
RA_OF_ASC_NODE = 332.1719
ARG_OF_PERICENTER = 18.8156
MEAN_ANOMALY   = 341.3011

EPHEMERIS_TYPE = 0
CLASSIFICATION_TYPE = U
NORAD_CAT_ID   = 65942
ELEMENT_SET_NO = 999
REV_AT_EPOCH   = 387
BSTAR          = .1041658E-2
MEAN_MOTION_DOT = .7009E-3
MEAN_MOTION_DDOT = 0

CCSDS_OMM_VERS = 2.0
CREATION_DATE  = 
ORIGINATOR     = 

OBJECT_NAME    = E-KAGAKU-1
OBJECT_ID      = 1998-067XQ
CENTER_NAME    = EARTH
REF_FRAME      = TEME
TIME_SYSTEM    = UTC
MEAN_ELEMENT_THEORY = SGP/SGP4

EPOCH          = 2025-11-05T05:13:19.509888
MEAN_MOTION    = 15.53658903
ECCENTRICITY   = .00044719
INCLINATION    = 51.6325
RA_OF_ASC_NODE = 327.7332
ARG_OF_PERICENTER = 12.1112
MEAN_ANOMALY   = 347.9985

EPHEMERIS_TYPE = 0
CLASSIFICATION_TYPE = U
NORAD_CAT_ID   = 65943
ELEMENT_SET_NO = 999
REV_AT_EPOCH   = 401
BSTAR          = .82466019E-3
MEAN_MOTION_DOT = .53565E-3
MEAN_MOTION_DDOT = 0

CCSDS_OMM_VERS = 2.0
CREATION_DATE  = 
ORIGINATOR     = 

OBJECT_NAME    = HRC MONOBLOCK CAMERA
OBJECT_ID      = 1998-067XR
CENTER_NAME    = EARTH
REF_FRAME      = TEME
TIME_SYSTEM    = UTC
MEAN_ELEMENT_THEORY = SGP/SGP4

EPOCH          = 2025-11-05T06:02:49.563456
MEAN_MOTION    = 15.50861039
ECCENTRICITY   = .00045726
INCLINATION    = 51.6322
RA_OF_ASC_NODE = 327.9600
ARG_OF_PERICENTER = 29.5729
MEAN_ANOMALY   = 330.5518

EPHEMERIS_TYPE = 0
CLASSIFICATION_TYPE = U
NORAD_CAT_ID   = 66052
ELEMENT_SET_NO = 999
REV_AT_EPOCH   = 301
BSTAR          = .51589792E-3
MEAN_MOTION_DOT = .30019E-3
MEAN_MOTION_DDOT = 0

CCSDS_OMM_VERS = 2.0
CREATION_DATE  = 
ORIGINATOR     = 

OBJECT_NAME    = HTV-X1
OBJECT_ID      = 2025-241A
CENTER_NAME    = EARTH
REF_FRAME      = TEME
TIME_SYSTEM    = UTC
MEAN_ELEMENT_THEORY = SGP/SGP4

EPOCH          = 2025-11-04T22:31:02.465472
MEAN_MOTION    = 15.49755997
ECCENTRICITY   = .0005046
INCLINATION    = 51.6335
RA_OF_ASC_NODE = 329.6155
ARG_OF_PERICENTER = 18.0946
MEAN_ANOMALY   = 342.0222

EPHEMERIS_TYPE = 0
CLASSIFICATION_TYPE = U
NORAD_CAT_ID   = 66174
ELEMENT_SET_NO = 999
REV_AT_EPOCH   = 145
BSTAR          = .19940879E-3
MEAN_MOTION_DOT = .10846E-3
MEAN_MOTION_DDOT = 0

